{
  "group_major": "Analyst",
  "data": {
    "Analyst": [
      {
        "catalogNumber": "87237",
        "name": "UNKNOWN",
        "tleLine1": "1 87237U 99025    24344.40482823  .00000907  00000+0  72269-3 0  9994",
        "tleLine2": "2 87237  99.3045  33.8730 0103973 198.7873 228.9150 13.91307292560532",
        "orbitClass": "sunSynchronous",
        "country": "Unknown",
        "group_minor": "analyst"
      },
      {
        "catalogNumber": "87239",
        "name": "UNKNOWN",
        "tleLine1": "1 87239U 81053    24346.56684116  .00010056  00000+0  29940-2 0  9999",
        "tleLine2": "2 87239  82.8796  31.6080 0026399 119.5917 240.7912 14.42842335574895",
        "orbitClass": "nonGeostationary",
        "country": "Unknown",
        "group_minor": "analyst"
      },
      {
        "catalogNumber": "87245",
        "name": "UNKNOWN",
        "tleLine1": "1 87245U 71015    24346.63106205  .00014994  00000+0  30142-2 0  9990",
        "tleLine2": "2 87245  65.6576 302.6826 0471529 298.8617 238.9842 14.09499091562475",
        "orbitClass": "nonGeostationary",
        "country": "Unknown",
        "group_minor": "analyst"
      },
      {
        "catalogNumber": "87271",
        "name": "UNKNOWN",
        "tleLine1": "1 87271U 71015    24346.16915501  .00018968  00000+0  34528-2 0  9991",
        "tleLine2": "2 87271  65.7641 135.7550 0478606 262.8945  91.7503 14.11863753560408",
        "orbitClass": "nonGeostationary",
        "country": "Unknown",
        "group_minor": "analyst"
      },
      {
        "catalogNumber": "87280",
        "name": "UNKNOWN",
        "tleLine1": "1 87280U          24346.50731895  .00000534  00000+0  95743-3 0  9994",
        "tleLine2": "2 87280  64.6170  60.8354 0116957 335.7507  23.8053 13.48119626484475",
        "orbitClass": "nonGeostationary",
        "country": "Unknown",
        "group_minor": "analyst"
      },
      {
        "catalogNumber": "87293",
        "name": "UNKNOWN",
        "tleLine1": "1 87293U 71015    24346.15354071  .00013258  00000+0  27378-2 0  9995",
        "tleLine2": "2 87293  65.9037  33.9675 0460188 200.5867 157.6136 14.10485185562143",
        "orbitClass": "nonGeostationary",
        "country": "Unknown",
        "group_minor": "analyst"
      },
      {
        "catalogNumber": "87300",
        "name": "UNKNOWN",
        "tleLine1": "1 87300U 70025    24345.80311004  .00003407  00000+0  24489-2 0  9999",
        "tleLine2": "2 87300 100.0587 286.5925 0027625 189.5772 170.4864 13.97512278561826",
        "orbitClass": "nonGeostationary",
        "country": "Unknown",
        "group_minor": "analyst"
      },
      {
        "catalogNumber": "87304",
        "name": "UNKNOWN",
        "tleLine1": "1 87304U          24338.25686236  .00004972  00000+0  77199-3 0  9997",
        "tleLine2": "2 87304  74.0181 332.9393 0018337  32.6046 327.6254 14.73251985591289",
        "orbitClass": "nonGeostationary",
        "country": "Unknown",
        "group_minor": "analyst"
      },
      {
        "catalogNumber": "87320",
        "name": "UNKNOWN",
        "tleLine1": "1 87320U 71015    24345.45156991  .00004775  00000+0  29720-2 0  9996",
        "tleLine2": "2 87320  66.5947 239.0772 0432398 288.4639  66.9896 13.67901360543460",
        "orbitClass": "nonGeostationary",
        "country": "Unknown",
        "group_minor": "analyst"
      },
      {
        "catalogNumber": "87334",
        "name": "UNKNOWN",
        "tleLine1": "1 87334U          24346.53543875  .00026487  00000+0  20602-1 0  9991",
        "tleLine2": "2 87334  89.9984 271.4990 0083746 318.4405  41.0422 13.90614605335468",
        "orbitClass": "nonGeostationary",
        "country": "Unknown",
        "group_minor": "analyst"
      },
      {
        "catalogNumber": "87335",
        "name": "UNKNOWN",
        "tleLine1": "1 87335U          24344.74941940  .00033607  00000+0  25877-1 0  9999",
        "tleLine2": "2 87335  89.9817 268.4310 0092093 301.4037  57.8154 13.90804424335528",
        "orbitClass": "nonGeostationary",
        "country": "Unknown",
        "group_minor": "analyst"
      },
      {
        "catalogNumber": "87405",
        "name": "UNKNOWN",
        "tleLine1": "1 87405U 81053    24346.43968160  .00004750  00000+0  35189-2 0  9990",
        "tleLine2": "2 87405  82.7519 348.5263 0052591 302.2868  57.3209 13.94361548560078",
        "orbitClass": "nonGeostationary",
        "country": "Unknown",
        "group_minor": "analyst"
      },
      {
        "catalogNumber": "87426",
        "name": "UNKNOWN",
        "tleLine1": "1 87426U          24346.50358406  .00006817  00000+0  29049-2 0  9994",
        "tleLine2": "2 87426  65.7856 243.8247 0058753 133.8738  40.0341 14.24760200570311",
        "orbitClass": "nonGeostationary",
        "country": "Unknown",
        "group_minor": "analyst"
      },
      {
        "catalogNumber": "87448",
        "name": "UNKNOWN",
        "tleLine1": "1 87448U 70025    24344.36765858  .00003615  00000+0  29839-2 0  9997",
        "tleLine2": "2 87448 100.4498 139.7913 0063647  76.5877 284.2360 13.88865661558069",
        "orbitClass": "nonGeostationary",
        "country": "Unknown",
        "group_minor": "analyst"
      },
      {
        "catalogNumber": "87456",
        "name": "UNKNOWN",
        "tleLine1": "1 87456U 76126    24345.71684106  .00010209  00000+0  15774-2 0  9990",
        "tleLine2": "2 87456  65.7850 339.4553 0546410 195.9566 162.3695 14.05662596559753",
        "orbitClass": "nonGeostationary",
        "country": "Unknown",
        "group_minor": "analyst"
      },
      {
        "catalogNumber": "87517",
        "name": "UNKNOWN",
        "tleLine1": "1 87517U 76126    24344.48409541  .00006508  00000+0  19971-2 0  9999",
        "tleLine2": "2 87517  65.8281  46.8479 0675721 124.6990 255.4135 13.57213163542869",
        "orbitClass": "nonGeostationary",
        "country": "Unknown",
        "group_minor": "analyst"
      },
      {
        "catalogNumber": "87541",
        "name": "UNKNOWN",
        "tleLine1": "1 87541U 70025    24346.10584490  .00000320  00000+0  70632-3 0  9994",
        "tleLine2": "2 87541  99.7481 211.6386 0059711  69.0551  85.5284 13.35421297533090",
        "orbitClass": "nonGeostationary",
        "country": "Unknown",
        "group_minor": "analyst"
      },
      {
        "catalogNumber": "87553",
        "name": "UNKNOWN",
        "tleLine1": "1 87553U 76126    24344.76337711  .00003329  00000+0  11004-2 0  9996",
        "tleLine2": "2 87553  65.6687 164.4019 0699832  30.2708 333.6897 13.50525611541503",
        "orbitClass": "nonGeostationary",
        "country": "Unknown",
        "group_minor": "analyst"
      },
      {
        "catalogNumber": "87557",
        "name": "UNKNOWN",
        "tleLine1": "1 87557U 73086    24344.74622006  .00007625  00000+0  17919-1 0  9997",
        "tleLine2": "2 87557 101.7292 148.0662 0051517 131.2282 229.3287 13.23697547516261",
        "orbitClass": "nonGeostationary",
        "country": "Unknown",
        "group_minor": "analyst"
      },
      {
        "catalogNumber": "87561",
        "name": "UNKNOWN",
        "tleLine1": "1 87561U 76077    24346.44521860  .00000048  00000+0  72782-3 0  9993",
        "tleLine2": "2 87561 102.0589  47.4419 0175831 243.5203 127.4639 12.32154614497323",
        "orbitClass": "nonGeostationary",
        "country": "Unknown",
        "group_minor": "analyst"
      },
      {
        "catalogNumber": "87565",
        "name": "UNKNOWN",
        "tleLine1": "1 87565U 99025    24346.13951233  .00002436  00000+0  13609-2 0  9997",
        "tleLine2": "2 87565  99.9097 297.0314 0176234  82.6834 279.4322 14.04316757564941",
        "orbitClass": "sunSynchronous",
        "country": "Unknown",
        "group_minor": "analyst"
      },
      {
        "catalogNumber": "87569",
        "name": "UNKNOWN",
        "tleLine1": "1 87569U 99025    24346.31816156 -.00000013  00000+0  18397-3 0  9995",
        "tleLine2": "2 87569 101.9573 143.9841 0055611 252.6277 225.3940 12.68523815512006",
        "orbitClass": "nonGeostationary",
        "country": "Unknown",
        "group_minor": "analyst"
      },
      {
        "catalogNumber": "87587",
        "name": "UNKNOWN",
        "tleLine1": "1 87587U 93036    24341.92723910  .00000679  00000+0  22448-3 0  9997",
        "tleLine2": "2 87587  74.0257  68.4452 0020647 198.3005 161.7410 14.39745715580432",
        "orbitClass": "nonGeostationary",
        "country": "Unknown",
        "group_minor": "analyst"
      },
      {
        "catalogNumber": "87590",
        "name": "UNKNOWN",
        "tleLine1": "1 87590U 99025    24345.58965304  .00001411  00000+0  82778-3 0  9993",
        "tleLine2": "2 87590  98.8306  24.3610 0026258 239.9149 273.6210 14.09619243102509",
        "orbitClass": "sunSynchronous",
        "country": "Unknown",
        "group_minor": "analyst"
      },
      {
        "catalogNumber": "87616",
        "name": "UNKNOWN",
        "tleLine1": "1 87616U 76067    24345.45292785  .00000777  00000+0  27748-2 0  9994",
        "tleLine2": "2 87616  66.0348 150.6809 0637825 295.1168  88.5545 12.46285244490454",
        "orbitClass": "nonGeostationary",
        "country": "Unknown",
        "group_minor": "analyst"
      },
      {
        "catalogNumber": "87624",
        "name": "UNKNOWN",
        "tleLine1": "1 87624U 99025    24346.55315398  .00010610  00000+0  18699-2 0  9992",
        "tleLine2": "2 87624  98.6689 256.9042 0108282 309.3362  49.8280 14.63927599526582",
        "orbitClass": "sunSynchronous",
        "country": "Unknown",
        "group_minor": "analyst"
      }
    ]
  }
}